satname,norad_id,inclination_deg,eccentricity,mean_motion_rev_per_day,perigee_km,apogee_km,l1,l2
STARLINK-1284,45390,53.0536,0.0001658,15.24705444,490.53105714066805,492.8090851654615,1 45390U 20019AG  26013.66670139  .01803961  00000+0  65592-1 0  9998,2 45390  53.0536  33.0817 0001658 109.9792  74.7448 15.24705444  5795
STARLINK-1297,45395,53.0542,0.0001,15.21924166,499.3493059561588,500.7249407808322,1 45395U 20019AM  26013.66670139  .01730938  00000+0  68572-1 0  9997,2 45395  53.0542  33.2266 0001000 126.9600 141.4768 15.21924166  5793
STARLINK-1307,45397,53.0571,0.0001892,15.26176856,485.9549006900015,488.5527645810698,1 45397U 20019AP  26013.66670139  .01646161  00000+0  56889-1 0  9991,2 45397  53.0571  32.9485 0001892  62.6896  28.6181 15.26176856  5748
STARLINK-1255,45399,53.048,0.000581,15.42627655,434.3972867193497,442.3180535260317,1 45399U 20019AR  26013.24676476  .00015236  00000+0  35320-3 0  9998,2 45399  53.0480   7.4857 0005810  52.8923 307.2612 15.42627655321859
STARLINK-1260,45404,53.055,0.0001434,15.06410235,546.187098830047,548.173279799943,1 45404U 20019AW  26013.31726879  .00005138  00000+0  36348-3 0  9997,2 45404  53.0550  25.1928 0001434  89.4906 270.6247 15.06410235321519
STARLINK-1263,45405,53.0549,0.0001445,15.06405123,546.1951461278259,548.196567323419,1 45405U 20019AX  26013.43520770  .00000980  00000+0  84676-4 0  9991,2 45405  53.0549  24.6662 0001445  90.3649 269.7506 15.06405123321533
STARLINK-1265,45406,53.0553,0.0001446,15.06393672,546.2295442088516,548.232360620691,1 45406U 20019AY  26013.44259234  .00000348  00000+0  42288-4 0  9998,2 45406  53.0553  24.6327 0001446  90.9194 269.1960 15.06393672321532
STARLINK-1278,45408,53.0503,0.0004378,15.44365918,430.25981238425084,436.2238556913344,1 45408U 20019BA  26013.46266452  .00016065  00000+0  35090-3 0  9997,2 45408  53.0503  35.4587 0004378 318.7757  41.2917 15.44365918321399
STARLINK-1296,45412,53.0707,0.0002173,15.10728961,532.4736057680648,535.4776099074315,1 45412U 20019BE  26013.66670139  .00008283  00000+0  51096-3 0  9992,2 45412  53.0707  23.5746 0002173  91.2914  52.9455 15.10728961  5797
STARLINK-1298,45413,53.0439,0.0007757,15.71421421,349.610998522332,360.0565293655145,1 45413U 20019BF  26013.66670139  .00183103  00000+0  13789-2 0  9994,2 45413  53.0439 331.1737 0007757  98.7873 194.3869 15.71421421  5908
STARLINK-1309,45414,53.0551,0.0001342,15.06397853,546.2887555323232,548.147520851413,1 45414U 20019BG  26013.46101125  .00000520  00000+0  53809-4 0  9997,2 45414  53.0551  24.5504 0001342  88.1849 271.9294 15.06397853321521
STARLINK-1316,45415,53.0554,0.0001386,15.06394337,546.2690585563114,548.188769987748,1 45415U 20019BH  26013.55316925  .00000072  00000+0  23749-4 0  9996,2 45415  53.0554  24.1351 0001386  90.6368 269.4780 15.06394337321574
STARLINK-1318,45416,53.0442,0.000507,15.77794722,333.28579898100634,340.0946337784162,1 45416U 20019BJ  26013.66670139  .00023415  00000+0  13985-3 0  9995,2 45416  53.0442 318.8896 0005070  98.1905 358.9348 15.77794722  5777
STARLINK-1286,45417,53.0516,0.0002076,15.44650351,430.9917716680093,433.81950897226943,1 45417U 20019BK  26013.23050413  .00019724  00000+0  42454-3 0  9997,2 45417  53.0516  36.2556 0002076 355.8496   4.2493 15.44650351321636
STARLINK-1308,45419,53.0549,0.0001595,15.2506768,489.48665054086086,491.6777719692518,1 45419U 20019BM  26013.66670139  .01817097  00000+0  65316-1 0  9999,2 45419  53.0549  53.0083 0001595  42.8670 347.6574 15.25067680  5749
STARLINK-1329,45531,53.0559,0.0005645,15.45068222,427.33376456955466,435.0214807785542,1 45531U 20025A   26013.33334348  .00018010  00000+0  38294-3 0  9998,2 45531  53.0559 347.1305 0005645  53.9798 306.1731 15.45068222316861
STARLINK-1338,45532,53.0541,0.0003374,15.43815882,432.56088715755595,437.15829725797903,1 45532U 20025B   26013.21989417  .00129069  00000+0  27670-2 0  9991,2 45532  53.0541 350.5480 0003374  81.7464 278.3924 15.43815882316809
STARLINK-1350,45535,53.0732,0.0002243,15.34543279,460.74311300561567,463.8117229135114,1 45535U 20025E   26013.06856021  .00008006  00000+0  24670-3 0  9996,2 45535  53.0732 294.0502 0002243 103.7478 256.3773 15.34543279317611
STARLINK-1362,45538,53.0553,0.000153,15.06396989,546.1612064936926,548.2803659762803,1 45538U 20025H   26013.33379145  .00000176  00000+0  30745-4 0  9997,2 45538  53.0553 354.8394 0001530  89.2334 270.8830 15.06396989316758
STARLINK-1368,45540,53.0548,0.000135,15.0639184,546.301641844334,548.1714927074981,1 45540U 20025K   26013.20576492 -.00000121  00000+0  10762-4 0  9998,2 45540  53.0548 355.6947 0001350  90.1471 269.9673 15.06391840316723
STARLINK-1371,45542,53.0545,0.0001769,15.39117471,447.51007719698373,449.92541840675676,1 45542U 20025M   26013.62839196  .00066084  00000+0  16750-2 0  9999,2 45542  53.0545 350.8587 0001769  81.1930 278.9274 15.39117471316834
STARLINK-1372,45543,53.0565,0.0001607,15.06392287,546.1222899611648,548.3481045853678,1 45543U 20025N   26013.34584119 -.00000171  00000+0  73953-5 0  9998,2 45543  53.0565 355.0639 0001607 116.3754 243.7400 15.06392287315843
STARLINK-1373,45544,53.055,0.0001847,15.40310525,443.93184429899156,446.4523820734021,1 45544U 20025P   26013.66670139  .00044665  00000+0  10949-2 0  9990,2 45544  53.0550 351.1628 0001847  86.2345 298.4512 15.40310525  5794
STARLINK-1294,45551,53.0415,0.0003819,15.76296599,338.37807061846706,343.51010475324165,1 45551U 20025W   26013.66670139  .00110963  00000+0  68580-3 0  9998,2 45551  53.0415 254.4703 0003819 192.2061 210.2998 15.76296599  5888
STARLINK-1325,45554,53.0415,0.0008482,15.93934075,285.62912438823787,296.94313378441984,1 45554U 20025Z   26013.66670139  .00306644  47476-4  82102-3 0  9993,2 45554  53.0415 242.6151 0008482 159.0945 268.7265 15.93934075  5747
STARLINK-1327,45555,53.0549,0.0002473,15.43393813,434.4164659567059,437.78678838170345,1 45555U 20025AA  26013.59512622  .00077523  00000+0  17009-2 0  9999,2 45555  53.0549 330.3609 0002473  90.2580 269.8709 15.43393813317110
STARLINK-1356,45564,53.054,0.0001639,15.17270249,512.9652368855513,515.2245104937465,1 45564U 20025AK  26013.66670139  .00098463  00000+0  48344-2 0  9997,2 45564  53.0540 333.4345 0001639  54.7039  17.4714 15.17270249  5798
STARLINK-1357,45565,53.0597,0.0005722,15.45201683,426.88946554955965,434.6815964940606,1 45565U 20025AL  26013.51232604  .00012832  00000+0  27436-3 0  9999,2 45565  53.0597 302.6520 0005722  87.2612 272.9049 15.45201683317500
STARLINK-1361,45567,53.0539,0.0001558,15.12088405,528.7558325308328,530.9083557005588,1 45567U 20025AN  26013.66670139  .00188731  00000+0  10574-1 0  9991,2 45567  53.0539 333.4590 0001558 100.7206 217.4893 15.12088405  5694
STARLINK-1363,45568,53.0506,0.0008878,15.54628924,397.21101708847345,409.252015025585,1 45568U 20025AP  26013.52372031  .00079271  00000+0  11710-2 0  9999,2 45568  53.0506 309.9545 0008878  39.9945 320.1717 15.54628924317394
STARLINK-1366,45569,53.0513,0.001233,15.54369558,395.623508349644,412.34822333681313,1 45569U 20025AQ  26013.52390339  .00073124  00000+0  10902-2 0  9994,2 45569  53.0513 310.5551 0012330  64.1726 296.0555 15.54369558317388
STARLINK-1376,45570,53.1377,0.0002222,15.2479722,489.86800068946013,492.9208204483166,1 45570U 20025AR  26013.66670139  .01534469  00000+0  55645-1 0  9997,2 45570  53.1377 333.0146 0002222 100.9913 128.0814 15.24797220  5794
STARLINK-1320,45572,53.0534,0.0007033,15.55645446,395.5097876543041,405.0443048517636,1 45572U 20025AT  26012.96840156  .00027721  00000+0  40183-3 0  9999,2 45572  53.0534 258.1645 0007033 140.4118 219.7407 15.55645446318094
STARLINK-1321,45573,53.0547,0.0002614,15.39765222,445.0189524658772,448.58703109358066,1 45573U 20025AU  26013.07868947  .00064738  00000+0  16068-2 0  9994,2 45573  53.0547 322.7890 0002614  94.1428 265.9875 15.39765222316871
STARLINK-1328,45576,53.0379,0.0005915,16.26639859,197.69344839314363,205.4772599381222,1 45576U 20025AX  26013.70968079  .02772759  11985-4  80334-3 0  9992,2 45576  53.0379 256.6407 0005915 250.6730 109.3672 16.26639859318161
STARLINK-1331,45578,53.0544,0.0001736,15.09685688,535.959170322034,538.3601613244091,1 45578U 20025AZ  26013.66670139  .00063635  00000+0  38891-2 0  9991,2 45578  53.0544 323.6184 0001736  48.8221  41.8872 15.09685688  5798
STARLINK-1333,45580,53.1208,0.0001604,15.22357968,497.6273695955015,499.83346866355805,1 45580U 20025BB  26013.66670139  .00098293  00000+0  41639-2 0  9996,2 45580  53.1208 333.2075 0001604 128.7750 152.1884 15.22357968  5740
STARLINK-1335,45581,53.0537,0.0001527,15.06388285,546.1899567512028,548.30496916619,1 45581U 20025BC  26013.59555182  .00001815  00000+0  14076-3 0  9999,2 45581  53.0537 323.9452 0001527  90.9341 269.1823 15.06388285317207
STARLINK-1337,45582,53.0553,0.0001675,15.12107882,528.615699473823,530.9298492482349,1 45582U 20025BD  26013.66670139  .00039825  00000+0  22904-2 0  9998,2 45582  53.0553 323.4786 0001675  98.4776 244.9832 15.12107882  5798
STARLINK-1347,45586,53.0519,0.0006066,15.43922472,430.4134426412329,438.6785896764377,1 45586U 20025BH  26013.17465838  .00027971  00000+0  61228-3 0  9998,2 45586  53.0519 295.2638 0006066  95.9844 264.1853 15.43922472317565
STARLINK-1364,45589,53.0546,0.000203,15.12115027,528.3487123801469,531.1533149136876,1 45589U 20025BL  26013.14134422 -.00001218  00000+0 -52818-4 0  9994,2 45589  53.0546 325.8226 0002030  95.2407 264.8817 15.12115027317132
STARLINK-1365,45590,53.0555,0.0001709,15.16571659,515.0330147589202,517.3895029938049,1 45590U 20025BM  26013.66670139  .00064992  00000+0  32757-2 0  9997,2 45590  53.0555 353.4417 0001709 118.3027 138.0539 15.16571659  5666
STARLINK-1443,45660,53.0544,0.0001418,15.06391632,546.2551867095508,548.2192228340236,1 45660U 20035D   26013.55592790 -.00000847  00000+0 -37960-4 0  9994,2 45660  53.0544 314.1232 0001418  90.4585 269.6567 15.06391632310422
